GNOMES-1                
1 46266U 20059B   26068.53916665  .00004080  00000+0  33422-3 0  9991
2 46266  97.8057 278.7760 0005451 357.8604   2.2595 14.99848479300657
TOMORROW-S7             
1 63631U 25081B   26068.64931870  .00002135  00000+0  19093-3 0  9990
2 63631  45.3909 132.5570 0000463 121.9907 238.1016 14.99242141 48231
